NORAD_CAT_ID,OBJECT_NAME,OBJECT_TYPE,EPOCH,MEAN_MOTION,ECCENTRICITY,INCLINATION,RA_OF_ASC_NODE,ARG_OF_PERICENTER,MEAN_ANOMALY,BSTAR,MEAN_MOTION_DOT,MEAN_MOTION_DDOT,TLE_LINE0,TLE_LINE1,TLE_LINE2,SEMIMAJOR_AXIS,PERIOD,APOGEE,PERIGEE,DECAYED
51719.0,STARLINK-3540,PAYLOAD,2023-06-24 04:08:40,15.08849574,0.0001323,53.2176,91.2408,95.3087,264.8056,0.00011141,1.486e-05,0.0,0 STARLINK-3540,1 51719U 22016F   23175.17268572  .00001486  00000-0  11141-3 0  9990,2 51719  53.2176  91.2408 0001323  95.3087 264.8056 15.08849574 75109,6917.851,95.437,540.631,538.801,0.0
51719.0,STARLINK-3540,PAYLOAD,2023-06-25 02:24:04,15.08846999,0.0001138,53.2177,87.0792,98.2746,261.8375,9.2832e-05,1.19e-05,0.0,0 STARLINK-3540,1 51719U 22016F   23176.10004952  .00001190  00000-0  92832-4 0  9993,2 51719  53.2177  87.0792 0001138  98.2746 261.8375 15.08846999 75241,6917.859,95.437,540.511,538.937,0.0
51719.0,STARLINK-3540,PAYLOAD,2023-06-26 02:14:51,15.0884522,0.0001028,53.2167,82.6196,88.2539,271.8571,9.654e-05,1.249e-05,0.0,0 STARLINK-3540,1 51719U 22016F   23177.09365224  .00001249  00000-0  96540-4 0  9999,2 51719  53.2167  82.6196 0001028  88.2539 271.8571 15.08845220 75397,6917.864,95.437,540.441,539.018,0.0
51719.0,STARLINK-3540,PAYLOAD,2023-06-26 16:33:20,15.08833741,0.0001157,53.2169,79.9417,90.5714,269.5411,9.631e-05,1.245e-05,0.0,0 STARLINK-3540,1 51719U 22016F   23177.68981997  .00001245  00000-0  96310-4 0  9996,2 51719  53.2169  79.9417 0001157  90.5714 269.5411 15.08833741 75480,6917.9,95.438,540.565,538.964,0.0
51719.0,STARLINK-3540,PAYLOAD,2023-06-28 03:31:49,15.08844744,0.0001047,53.2174,73.4017,95.5931,264.518,0.00020662,3.002e-05,0.0,0 STARLINK-3540,1 51719U 22016F   23179.14709844  .00003002  00000-0  20662-3 0  9997,2 51719  53.2174  73.4017 0001047  95.5931 264.5180 15.08844744 75703,6917.866,95.437,540.455,539.007,0.0
51719.0,STARLINK-3540,PAYLOAD,2023-06-29 01:47:13,15.08841952,9.75e-05,53.2178,69.2393,93.0249,267.0855,0.00015667,2.207e-05,0.0,0 STARLINK-3540,1 51719U 22016F   23180.07446143  .00002207  00000-0  15667-3 0  9996,2 51719  53.2178  69.2393 0000975  93.0249 267.0855 15.08841952 75841,6917.874,95.437,540.414,539.065,0.0
51719.0,STARLINK-3540,PAYLOAD,2023-06-30 15:56:29,15.08837212,9.45e-05,53.2168,62.103,84.535,275.575,7.6229e-05,9.26e-06,0.0,0 STARLINK-3540,1 51719U 22016F   23181.66422499  .00000926  00000-0  76229-4 0  9998,2 51719  53.2168  62.1030 0000945  84.5350 275.5750 15.08837212 76084,6917.889,95.438,540.408,539.1,0.0
51719.0,STARLINK-3540,PAYLOAD,2023-07-01 18:58:02,15.08841997,9.87e-05,53.2176,57.0461,92.351,267.7595,-1.8916e-06,-3.18e-06,0.0,0 STARLINK-3540,1 51719U 22016F   23182.79030487 -.00000318  00000-0 -18916-5 0  9992,2 51719  53.2176  57.0461 0000987  92.3510 267.7595 15.08841997 76259,6917.874,95.437,540.422,539.056,0.0
51719.0,STARLINK-3540,PAYLOAD,2023-07-02 01:19:34,15.08846215,0.000103,53.2178,55.8562,97.7141,262.3969,3.5963e-05,2.85e-06,0.0,0 STARLINK-3540,1 51719U 22016F   23183.05526041  .00000285  00000-0  35963-4 0  9999,2 51719  53.2178  55.8562 0001030  97.7141 262.3969 15.08846215 76296,6917.861,95.437,540.439,539.014,0.0
51719.0,STARLINK-3540,PAYLOAD,2023-07-03 01:10:21,15.08839991,0.0001146,53.2175,51.3967,88.1271,271.9852,0.00014731,2.057e-05,0.0,0 STARLINK-3540,1 51719U 22016F   23184.04886373  .00002057  00000-0  14731-3 0  9994,2 51719  53.2175  51.3967 0001146  88.1271 271.9852 15.08839991 76446,6917.88,95.438,540.538,538.953,0.0
51719.0,STARLINK-3540,PAYLOAD,2023-07-04 15:19:37,15.08836165,0.0001261,53.2209,44.2638,104.9504,255.1628,3.8194e-05,3.2e-06,0.0,0 STARLINK-3540,1 51719U 22016F   23185.63863000  .00000320  00000-0  38194-4 0  9993,2 51719  53.2209  44.2638 0001261 104.9504 255.1628 15.08836165 76685,6917.892,95.438,540.629,538.885,0.0
51719.0,STARLINK-3540,PAYLOAD,2023-07-05 00:51:55,15.08844687,9.66e-05,53.2177,42.4751,95.4671,264.6431,8.0432e-05,9.93e-06,0.0,0 STARLINK-3540,1 51719U 22016F   23186.03606333  .00000993  00000-0  80432-4 0  9990,2 51719  53.2177  42.4751 0000966  95.4671 264.6431 15.08844687 76747,6917.866,95.437,540.399,539.063,0.0
51719.0,STARLINK-3540,PAYLOAD,2023-07-05 07:13:28,15.08837463,0.0001028,53.2183,41.2856,95.7875,264.3234,1.9162e-05,1.7e-07,0.0,0 STARLINK-3540,1 51719U 22016F   23186.30102946  .00000017  00000-0  19162-4 0  9990,2 51719  53.2183  41.2856 0001028  95.7875 264.3234 15.08837463 76782,6917.888,95.438,540.464,539.042,0.0
51719.0,STARLINK-3540,PAYLOAD,2023-07-07 00:33:29,15.08850837,9.32e-05,53.2179,33.5541,95.6473,264.4625,0.00016434,2.329e-05,0.0,0 STARLINK-3540,1 51719U 22016F   23188.02326132  .00002329  00000-0  16434-3 0  9992,2 51719  53.2179  33.5541 0000932  95.6473 264.4625 15.08850837 77043,6917.847,95.437,540.357,539.068,0.0
51719.0,STARLINK-3540,PAYLOAD,2023-07-07 19:38:08,15.08832116,9.25e-05,53.2173,29.987,91.0114,269.0985,7.6883e-05,9.36e-06,0.0,0 STARLINK-3540,1 51719U 22016F   23188.81815672  .00000936  00000-0  76883-4 0  9998,2 51719  53.2173  29.9870 0000925  91.0114 269.0985 15.08832116 77168,6917.904,95.438,540.409,539.13,0.0
51719.0,STARLINK-3540,PAYLOAD,2023-07-08 06:45:50,15.08842226,9.4e-05,53.2184,27.9048,85.8026,274.3074,9.4564e-05,1.218e-05,0.0,0 STARLINK-3540,1 51719U 22016F   23189.28183074  .00001218  00000-0  94564-4 0  9994,2 51719  53.2184  27.9048 0000940  85.8026 274.3074 15.08842226 77234,6917.874,95.437,540.389,539.088,0.0
51719.0,STARLINK-3540,PAYLOAD,2023-07-09 12:58:10,15.08836272,9.89e-05,53.2174,22.2547,91.0109,269.0997,7.5587e-05,9.15e-06,0.0,0 STARLINK-3540,1 51719U 22016F   23190.54039469  .00000915  00000-0  75587-4 0  9990,2 51719  53.2174  22.2547 0000989  91.0109 269.0997 15.08836272 77429,6917.892,95.438,540.441,539.073,0.0
51719.0,STARLINK-3540,PAYLOAD,2023-07-10 00:05:51,15.08844472,9.78e-05,53.2184,20.173,90.7317,269.3788,8.1311e-05,1.007e-05,0.0,0 STARLINK-3540,1 51719U 22016F   23191.00406918  .00001007  00000-0  81311-4 0  9994,2 51719  53.2184  20.1730 0000978  90.7317 269.3788 15.08844472 77495,6917.867,95.437,540.408,539.055,0.0
51719.0,STARLINK-3540,PAYLOAD,2023-07-11 11:04:21,15.08834203,0.0001015,53.2179,13.6302,94.0759,266.0349,3.0619e-05,2e-06,0.0,0 STARLINK-3540,1 51719U 22016F   23192.46135692  .00000200  00000-0  30619-4 0  9992,2 51719  53.2179  13.6302 0001015  94.0759 266.0349 15.08834203 77714,6917.898,95.438,540.465,539.061,0.0
51719.0,STARLINK-3540,PAYLOAD,2023-07-11 19:01:16,15.08841166,0.0001304,53.2189,12.1445,95.3938,264.7203,8.3449e-05,1.04e-05,0.0,0 STARLINK-3540,1 51719U 22016F   23192.79255184  .00001040  00000-0  83449-4 0  9999,2 51719  53.2189  12.1445 0001304  95.3938 264.7203 15.08841166 77766,6917.877,95.437,540.644,538.84,0.0
51719.0,STARLINK-3540,PAYLOAD,2023-07-13 17:07:28,15.08831499,0.0001052,53.2189,3.5226,104.2249,255.886,2.0783e-05,4.3e-07,0.0,0 STARLINK-3540,1 51719U 22016F   23194.71352432  .00000043  00000-0  20783-4 0  9991,2 51719  53.2189   3.5226 0001052 104.2249 255.8860 15.08831499 78053,6917.906,95.438,540.499,539.044,0.0
51719.0,STARLINK-3540,PAYLOAD,2023-07-14 10:36:42,15.08840526,8.37e-05,53.2197,0.2486,105.3973,254.7112,2.1895e-05,6.1e-07,0.0,0 STARLINK-3540,1 51719U 22016F   23195.44215918  .00000061  00000-0  21895-4 0  9994,2 51719  53.2197   0.2486 0000837 105.3973 254.7112 15.08840526 78161,6917.879,95.438,540.323,539.165,0.0
51719.0,STARLINK-3540,PAYLOAD,2023-07-14 16:58:14,15.0884852,0.0001058,53.2193,359.0623,96.1744,263.9368,0.00015705,2.213e-05,0.0,0 STARLINK-3540,1 51719U 22016F   23195.70711401  .00002213  00000-0  15705-3 0  9994,2 51719  53.2193 359.0623 0001058  96.1744 263.9368 15.08848520 78206,6917.854,95.437,540.451,538.987,0.0
51719.0,STARLINK-3540,PAYLOAD,2023-07-15 10:27:29,15.08832749,6.67e-05,53.2176,355.7902,97.868,262.2388,9.3818e-05,1.206e-05,0.0,0 STARLINK-3540,1 51719U 22016F   23196.43576328  .00001206  00000-0  93818-4 0  9995,2 51719  53.2176 355.7902 0000667  97.8680 262.2388 15.08832749 78314,6917.903,95.438,540.229,539.306,0.0
51719.0,STARLINK-3540,PAYLOAD,2023-07-15 16:49:02,15.08841282,8.98e-05,53.2172,354.6003,92.2539,267.8556,0.00015798,2.227e-05,0.0,0 STARLINK-3540,1 51719U 22016F   23196.70071937  .00002227  00000-0  15798-3 0  9995,2 51719  53.2172 354.6003 0000898  92.2539 267.8556 15.08841282 78352,6917.876,95.437,540.363,539.12,0.0
51719.0,STARLINK-3540,PAYLOAD,2023-07-16 10:18:16,15.08836894,7.93e-05,53.2159,351.329,98.0278,262.0805,6.0208e-05,6.71e-06,0.0,0 STARLINK-3540,1 51719U 22016F   23197.42936173  .00000671  00000-0  60208-4 0  9995,2 51719  53.2159 351.3290 0000793  98.0278 262.0805 15.08836894 78466,6917.89,95.438,540.303,539.206,0.0
51719.0,STARLINK-3540,PAYLOAD,2023-07-17 16:30:36,15.08853833,0.0001126,53.2179,345.6794,82.2777,277.8343,0.00044584,6.817e-05,0.0,0 STARLINK-3540,1 51719U 22016F   23198.68791952  .00006817  00000-0  44584-3 0  9994,2 51719  53.2179 345.6794 0001126  82.2777 277.8343 15.08853833 78657,6917.838,95.437,540.482,538.924,0.0
51719.0,STARLINK-3540,PAYLOAD,2023-07-18 14:45:59,15.0885164,0.0001065,53.2183,341.5157,78.0756,282.0356,0.00026417,3.92e-05,0.0,0 STARLINK-3540,1 51719U 22016F   23199.61527521  .00003920  00000-0  26417-3 0  9994,2 51719  53.2183 341.5157 0001065  78.0756 282.0356 15.08851640 78793,6917.845,95.437,540.447,538.973,0.0
51719.0,STARLINK-3540,PAYLOAD,2023-07-19 09:50:38,15.08832916,7.38e-05,53.2182,337.9481,82.2453,277.8623,-0.00011891,-2.179e-05,0.0,0 STARLINK-3540,1 51719U 22016F   23200.41016248 -.00002179  00000-0 -11891-3 0  9991,2 51719  53.2182 337.9481 0000738  82.2453 277.8623 15.08832916 78916,6917.902,95.438,540.278,539.257,0.0
51719.0,STARLINK-3540,PAYLOAD,2023-07-20 19:13:43,15.08849671,9.73e-05,53.2181,331.7021,106.1757,253.9343,0.00019153,2.763e-05,0.0,0 STARLINK-3540,1 51719U 22016F   23201.80119988  .00002763  00000-0  19153-3 0  9996,2 51719  53.2181 331.7021 0000973 106.1757 253.9343 15.08849671 79125,6917.851,95.437,540.389,539.043,0.0
